[{"OBJECT_NAME":"AETHER-8","OBJECT_ID":"2026-004S","EPOCH":"2026-03-09T23:37:25.854528","MEAN_MOTION":14.87815417,"ECCENTRICITY":0.00069617,"INCLINATION":97.8009,"RA_OF_ASC_NODE":69.1822,"ARG_OF_PERICENTER":97.7644,"MEAN_ANOMALY":262.4363,"EPHEMERIS_TYPE":0,"CLASSIFICATION_TYPE":"U","NORAD_CAT_ID":67379,"ELEMENT_SET_NO":999,"REV_AT_EPOCH":853,"BSTAR":0.00014657991,"MEAN_MOTION_DOT":1.285e-5,"MEAN_MOTION_DDOT":0},{"OBJECT_NAME":"SL-14 R\/B","OBJECT_ID":"1985-058B","EPOCH":"2026-03-09T17:05:08.172096","MEAN_MOTION":14.85781539,"ECCENTRICITY":0.00210646,"INCLINATION":82.5282,"RA_OF_ASC_NODE":154.9342,"ARG_OF_PERICENTER":138.8618,"MEAN_ANOMALY":221.4192,"EPHEMERIS_TYPE":0,"CLASSIFICATION_TYPE":"U","NORAD_CAT_ID":15890,"ELEMENT_SET_NO":999,"REV_AT_EPOCH":17646,"BSTAR":7.1757705e-5,"MEAN_MOTION_DOT":6.5e-6,"MEAN_MOTION_DDOT":0}]
